OBJECT_NAME,OBJECT_ID,EPOCH,MEAN_MOTION,ECCENTRICITY,INCLINATION,RA_OF_ASC_NODE,ARG_OF_PERICENTER,MEAN_ANOMALY,EPHEMERIS_TYPE,CLASSIFICATION_TYPE,NORAD_CAT_ID,ELEMENT_SET_NO,REV_AT_EPOCH,BSTAR,MEAN_MOTION_DOT,MEAN_MOTION_DDOT,SEMIMAJOR_AXIS,SATELLITE_TYPE
ROBUSTA-1E (ENSO),2023-185J,2025-01-01T02:57:21.565728,15.37587317,0.0008571,97.3998,73.245,299.1586,60.88,0,U,58470,999,6039,0.00161,0.0005976,0.0,6831.383230897343,CubeSat
TRITON-1,2013-066M,2025-01-01T01:31:56.260704,14.77223105,0.0097761,97.8422,279.0357,162.5977,197.8624,0,U,39427,999,59558,0.0010821,8.251e-05,0.0,7016.240170812453,CubeSat
IRIDIUM 131,2017-083K,2024-12-31T13:50:30.724800,14.34216301,0.0001955,86.3999,184.7413,86.6981,273.4438,0,U,43079,999,36776,-5.3289e-05,-1.29e-06,0.0,7155.808974062788,Iridium Next
AEROCUBE 8D,2016-067E,2024-12-31T23:18:03.563712,15.13563753,0.0004699,98.1099,187.8853,147.5362,212.6157,0,U,41852,999,44525,0.0010781,0.00019303,0.0,6903.479330665541,CubeSat
NETSAT-4,2020-068U,2024-12-31T20:33:19.238688,15.23283557,0.0010504,97.8296,330.6897,48.3444,311.8689,0,U,46504,999,23417,0.001259,0.00029917,0.0,6874.081421040296,CubeSat
ROBUSTA-3A (MEDITERRANEE),2024-128J,2024-12-30T18:05:23.034048,15.00669781,0.0031607,61.991,279.6135,9.7768,350.393,0,U,60243,999,2605,0.0016749,0.00021396,0.0,6942.966714016182,CubeSat
IRIDIUM 132,2017-061G,2024-12-31T17:57:50.599584,14.34218164,0.0001911,86.3962,247.7055,89.0427,271.0988,0,U,42961,999,37850,9.936e-05,2.98e-06,0.0,7155.802777295174,Iridium Next
GLOBALSTAR M083,2011-033A,2024-12-31T23:06:46.019232,12.62270235,9.17e-05,51.9829,193.3486,95.2441,69.4917,0,U,37739,999,62573,7.9368e-05,-9e-07,0.0,7791.724954783433,Globalstar
NEE-02 KRYSAOR,2013-066AB,2024-12-31T06:35:09.636576,14.82715386,0.007175,97.843,301.3308,15.2986,345.0374,0,U,39441,999,59711,0.0009873,8.286e-05,0.0,6998.903064154119,CubeSat
TIGRISAT,2014-033AK,2024-12-31T21:13:57.387936,14.81404342,0.0053387,97.712,161.6716,19.8727,340.455,0,U,40043,999,56670,0.00081612,6.493e-05,0.0,7003.031811766011,CubeSat
ORBCOMM FM118,2015-081E,2024-12-31T16:23:57.205536,14.57656978,0.0001221,47.0046,357.4955,62.0237,298.0772,0,U,41183,999,48000,0.00088924,3.928e-05,0.0,7078.886525730137,Orbcomm
BEESAT-1,2009-051C,2024-12-31T15:04:25.309344,14.60045994,0.0006696,98.4407,254.4097,80.7718,279.4238,0,U,35933,999,81142,0.0008501,4.037e-05,0.0,7071.162482078481,CubeSat
IRIDIUM 172,2019-002F,2024-12-31T23:39:58.694400,14.34219355,0.0002029,86.3974,215.9481,84.7214,275.4213,0,U,43927,999,31268,0.00017911,5.21e-06,0.0,7155.798815761556,Iridium Next
SITRO-AIS 50,2024-039L,2025-01-01T03:25:45.510240,15.50662033,0.0007648,97.4101,330.6334,204.8891,155.1993,0,U,59061,999,4701,0.0021418,0.00124659,0.0,6792.928951772542,CubeSat
BRITE-PL2 (HEWELIUSZ),2014-049B,2024-12-31T20:44:09.452256,14.91148914,0.001626,97.8868,106.0084,74.366,285.9351,0,U,40119,999,56201,0.00064812,6.393e-05,0.0,6972.488879611159,CubeSat
IRIDIUM 176,2019-002B,2024-12-31T07:00:43.557120,14.72261868,0.0002752,86.6098,216.2648,67.2837,292.8671,0,U,43923,999,32084,0.0004777,3.038e-05,0.0,7031.993577302452,Iridium Next
SNAP-3 JIMI,2015-058M,2024-12-31T20:41:52.176480,14.92817304,0.0167748,64.769,93.5714,246.9146,111.4209,0,U,40975,999,3447,0.0017478,0.00023812,0.0,6967.292888291544,CubeSat
SVYATOBOR 1 (RS60S),2023-091X,2025-01-01T02:14:39.139584,15.14827509,0.0012974,97.5876,58.9345,143.4035,216.8085,0,U,57187,999,8343,0.0010954,0.00020368,0.0,6899.639277644347,Amateur Radio
IRIDIUM 149,2018-030B,2024-12-31T20:00:02.971872,14.34223287,0.0002136,86.3997,152.925,96.7689,263.375,0,U,43250,999,35385,0.00034668,9.91e-06,0.0,7155.785737084962,Iridium Next
ITUPSAT1,2009-051E,2025-01-01T03:11:49.021728,14.58904949,0.000892,98.4504,254.588,86.2111,274.0107,0,U,35935,999,81114,0.0008306,3.846e-05,0.0,7074.849020259869,Amateur Radio
GLOBALSTAR M074,2010-054B,2024-12-31T21:22:47.720640,12.6226095,8.93e-05,52.0026,288.4132,54.6136,21.3189,0,U,37189,999,65593,0.00029951,-5e-07,0.0,7791.763164567504,Globalstar
DELFI-N3XT,2013-066N,2024-12-31T11:50:07.322784,14.84280922,0.0091025,97.8385,280.3747,165.2058,195.1852,0,U,39428,999,59529,0.0016651,0.00014993,0.0,6993.980832523326,CubeSat
